{"type": "FeatureCollection", "features": [ {"type": "Feature", "properties": {"norad_id": 66829, "name": "STARLINK-36084", "group": "last-30-days", "lat": 48.0102568323404, "lon": -169.68731005772815, "alt_km": 405.9873203595771, "timestamp": "2025-12-24T09:46:29.715980+00:00", "meta": {"OBJECT_NAME": "STARLINK-36084", "OBJECT_ID": "2025-280J", "EPOCH": "2025-12-24T01:49:08.821920", "MEAN_MOTION": 15.52544729, "ECCENTRICITY": 0.0003329, "INCLINATION": 70.0004, "RA_OF_ASC_NODE": 167.3507, "ARG_OF_PERICENTER": 273.3613, "MEAN_ANOMALY": 86.7193, "EPHEMERIS_TYPE": 0, "CLASSIFICATION_TYPE": "U", "NORAD_CAT_ID": 66829, "ELEMENT_SET_NO": 999, "REV_AT_EPOCH": 469, "BSTAR": 0.001438, "MEAN_MOTION_DOT": 0.00089384, "MEAN_MOTION_DDOT": 0}, "tle": {"line1": "1 66829U 25280J   25358.07579655  .00089384  00000+0  14380-2 0  9994", "line2": "2 66829  70.0004 167.3507 0003329 273.3613  86.7193 15.52544729  4692"}}, "geometry": {"type": "Point", "coordinates": [-169.68731005772815, 48.0102568323404]}}, {"type": "Feature", "properties": {"norad_id": 66830, "name": "STARLINK-35881", "group": "last-30-days", "lat": 51.263918519570026, "lon": -166.55934734255823, "alt_km": 405.7085949472148, "timestamp": "2025-12-24T09:46:29.715992+00:00", "meta": {"OBJECT_NAME": "STARLINK-35881", "OBJECT_ID": "2025-280K", "EPOCH": "2025-12-24T01:48:09.390816", "MEAN_MOTION": 15.52542866, "ECCENTRICITY": 0.0003375, "INCLINATION": 70.0007, "RA_OF_ASC_NODE": 167.3475, "ARG_OF_PERICENTER": 273.3992, "MEAN_ANOMALY": 86.6809, "EPHEMERIS_TYPE": 0, "CLASSIFICATION_TYPE": "U", "NORAD_CAT_ID": 66830, "ELEMENT_SET_NO": 999, "REV_AT_EPOCH": 469, "BSTAR": 0.00096232, "MEAN_MOTION_DOT": 0.00059532, "MEAN_MOTION_DDOT": 0}, "tle": {"line1": "1 66830U 25280K   25358.07510869  .00059532  00000+0  96232-3 0  9997", "line2": "2 66830  70.0007 167.3475 0003375 273.3992  86.6809 15.52542866  4695"}}, "geometry": {"type": "Point", "coordinates": [-166.55934734255823, 51.263918519570026]}}, {"type": "Feature", "properties": {"norad_id": 66831, "name": "STARLINK-35788", "group": "last-30-days", "lat": 52.87869699211682, "lon": -164.7979075706286, "alt_km": 405.73732805354484, "timestamp": "2025-12-24T09:46:29.716002+00:00", "meta": {"OBJECT_NAME": "STARLINK-35788", "OBJECT_ID": "2025-280L", "EPOCH": "2025-12-24T01:47:39.657120", "MEAN_MOTION": 15.52557653, "ECCENTRICITY": 0.0003395, "INCLINATION": 70.0004, "RA_OF_ASC_NODE": 167.3476, "ARG_OF_PERICENTER": 257.9889, "MEAN_ANOMALY": 102.0917, "EPHEMERIS_TYPE": 0, "CLASSIFICATION_TYPE": "U", "NORAD_CAT_ID": 66831, "ELEMENT_SET_NO": 999, "REV_AT_EPOCH": 469, "BSTAR": 0.0013773, "MEAN_MOTION_DOT": 0.00085601, "MEAN_MOTION_DDOT": 0}, "tle": {"line1": "1 66831U 25280L   25358.07476455  .00085601  00000+0  13773-2 0  9994", "line2": "2 66831  70.0004 167.3476 0003395 257.9889 102.0917 15.52557653  4692"}}, "geometry": {"type": "Point", "coordinates": [-164.7979075706286, 52.87869699211682]}}, {"type": "Feature", "properties": {"norad_id": 66832, "name": "STARLINK-35768", "group": "last-30-days", "lat": 54.4434086853829, "lon": -162.93223111232768, "alt_km": 405.4033394203734, "timestamp": "2025-12-24T09:46:29.716012+00:00", "meta": {"OBJECT_NAME": "STARLINK-35768", "OBJECT_ID": "2025-280M", "EPOCH": "2025-12-24T01:47:10.084992", "MEAN_MOTION": 15.52551647, "ECCENTRICITY": 0.0003413, "INCLINATION": 70.0006, "RA_OF_ASC_NODE": 167.3452, "ARG_OF_PERICENTER": 268.5164, "MEAN_ANOMALY": 91.5632, "EPHEMERIS_TYPE": 0, "CLASSIFICATION_TYPE": "U", "NORAD_CAT_ID": 66832, "ELEMENT_SET_NO": 999, "REV_AT_EPOCH": 469, "BSTAR": 0.0015354, "MEAN_MOTION_DOT": 0.00095545, "MEAN_MOTION_DDOT": 0}, "tle": {"line1": "1 66832U 25280M   25358.07442228  .00095545  00000+0  15354-2 0  9991", "line2": "2 66832  70.0006 167.3452 0003413 268.5164  91.5632 15.52551647  4697"}}, "geometry": {"type": "Point", "coordinates": [-162.93223111232768, 54.4434086853829]}}, {"type": "Feature", "properties": {"norad_id": 66833, "name": "STARLINK-35858", "group": "last-30-days", "lat": 55.958805797721254, "lon": -160.94271985309607, "alt_km": 405.26204258335565, "timestamp": "2025-12-24T09:46:29.716022+00:00", "meta": {"OBJECT_NAME": "STARLINK-35858", "OBJECT_ID": "2025-280N", "EPOCH": "2025-12-24T01:46:40.372896", "MEAN_MOTION": 15.52541772, "ECCENTRICITY": 0.000341, "INCLINATION": 70.0005, "RA_OF_ASC_NODE": 167.3442, "ARG_OF_PERICENTER": 274.0312, "MEAN_ANOMALY": 86.0485, "EPHEMERIS_TYPE": 0, "CLASSIFICATION_TYPE": "U", "NORAD_CAT_ID": 66833, "ELEMENT_SET_NO": 999, "REV_AT_EPOCH": 469, "BSTAR": 0.00067904, "MEAN_MOTION_DOT": 0.00041862, "MEAN_MOTION_DDOT": 0}, "tle": {"line1": "1 66833U 25280N   25358.07407839  .00041862  00000+0  67904-3 0  9993", "line2": "2 66833  70.0005 167.3442 0003410 274.0312  86.0485 15.52541772  4693"}}, "geometry": {"type": "Point", "coordinates": [-160.94271985309607, 55.958805797721254]}}, {"type": "Feature", "properties": {"norad_id": 66834, "name": "STARLINK-35840", "group": "last-30-days", "lat": 57.44077725826049, "lon": -158.79223214365783, "alt_km": 405.03747450399715, "timestamp": "2025-12-24T09:46:29.716032+00:00", "meta": {"OBJECT_NAME": "STARLINK-35840", "OBJECT_ID": "2025-280P", "EPOCH": "2025-12-24T01:46:11.013312", "MEAN_MOTION": 15.52532788, "ECCENTRICITY": 0.0003267, "INCLINATION": 70.0006, "RA_OF_ASC_NODE": 167.3423, "ARG_OF_PERICENTER": 274.0694, "MEAN_ANOMALY": 86.0119, "EPHEMERIS_TYPE": 0, "CLASSIFICATION_TYPE": "U", "NORAD_CAT_ID": 66834, "ELEMENT_SET_NO": 999, "REV_AT_EPOCH": 469, "BSTAR": 0.00086873, "MEAN_MOTION_DOT": 0.00053665, "MEAN_MOTION_DDOT": 0}, "tle": {"line1": "1 66834U 25280P   25358.07373858  .00053665  00000+0  86873-3 0  9997", "line2": "2 66834  70.0006 167.3423 0003267 274.0694  86.0119 15.52532788  4698"}}, "geometry": {"type": "Point", "coordinates": [-158.79223214365783, 57.44077725826049]}}, {"type": "Feature", "properties": {"norad_id": 66835, "name": "STARLINK-35890", "group": "last-30-days", "lat": 58.90519328187974, "lon": -156.424030931467, "alt_km": 405.0839510076139, "timestamp": "2025-12-24T09:46:29.716044+00:00", "meta": {"OBJECT_NAME": "STARLINK-35890", "OBJECT_ID": "2025-280Q", "EPOCH": "2025-12-24T01:45:41.160384", "MEAN_MOTION": 15.52535285, "ECCENTRICITY": 0.00034, "INCLINATION": 70.0006, "RA_OF_ASC_NODE": 167.3406, "ARG_OF_PERICENTER": 269.3113, "MEAN_ANOMALY": 90.7684, "EPHEMERIS_TYPE": 0, "CLASSIFICATION_TYPE": "U", "NORAD_CAT_ID": 66835, "ELEMENT_SET_NO": 999, "REV_AT_EPOCH": 469, "BSTAR": 0.00059596, "MEAN_MOTION_DOT": 0.00036688, "MEAN_MOTION_DDOT": 0}, "tle": {"line1": "1 66835U 25280Q   25358.07339306  .00036688  00000+0  59596-3 0  9996", "line2": "2 66835  70.0006 167.3406 0003400 269.3113  90.7684 15.52535285  4696"}}, "geometry": {"type": "Point", "coordinates": [-156.424030931467, 58.90519328187974]}}, {"type": "Feature", "properties": {"norad_id": 66836, "name": "STARLINK-35838", "group": "last-30-days", "lat": 60.32582127876014, "lon": -153.8431492692234, "alt_km": 404.60118511815017, "timestamp": "2025-12-24T09:46:29.716054+00:00", "meta": {"OBJECT_NAME": "STARLINK-35838", "OBJECT_ID": "2025-280R", "EPOCH": "2025-12-24T03:17:58.588224", "MEAN_MOTION": 15.52549794, "ECCENTRICITY": 0.0003233, "INCLINATION": 70.0007, "RA_OF_ASC_NODE": 167.1626, "ARG_OF_PERICENTER": 276.7004, "MEAN_ANOMALY": 83.3815, "EPHEMERIS_TYPE": 0, "CLASSIFICATION_TYPE": "U", "NORAD_CAT_ID": 66836, "ELEMENT_SET_NO": 999, "REV_AT_EPOCH": 470, "BSTAR": 0.0016146, "MEAN_MOTION_DOT": 0.00100539, "MEAN_MOTION_DDOT": 0}, "tle": {"line1": "1 66836U 25280R   25358.13748366  .00100539  00000+0  16146-2 0  9994", "line2": "2 66836  70.0007 167.1626 0003233 276.7004  83.3815 15.52549794  4701"}}, "geometry": {"type": "Point", "coordinates": [-153.8431492692234, 60.32582127876014]}}, {"type": "Feature", "properties": {"norad_id": 66837, "name": "STARLINK-35729", "group": "last-30-days", "lat": 61.70708099020785, "lon": -150.99765250747402, "alt_km": 404.655658334249, "timestamp": "2025-12-24T09:46:29.716066+00:00", "meta": {"OBJECT_NAME": "STARLINK-35729", "OBJECT_ID": "2025-280S", "EPOCH": "2025-12-24T01:44:41.896032", "MEAN_MOTION": 15.5255628, "ECCENTRICITY": 0.0003317, "INCLINATION": 70.0008, "RA_OF_ASC_NODE": 167.3382, "ARG_OF_PERICENTER": 265.4757, "MEAN_ANOMALY": 94.6051, "EPHEMERIS_TYPE": 0, "CLASSIFICATION_TYPE": "U", "NORAD_CAT_ID": 66837, "ELEMENT_SET_NO": 999, "REV_AT_EPOCH": 469, "BSTAR": 0.001448, "MEAN_MOTION_DOT": 0.00090048, "MEAN_MOTION_DDOT": 0}, "tle": {"line1": "1 66837U 25280S   25358.07270713  .00090048  00000+0  14480-2 0  9996", "line2": "2 66837  70.0008 167.3382 0003317 265.4757  94.6051 15.52556280  4690"}}, "geometry": {"type": "Point", "coordinates": [-150.99765250747402, 61.70708099020785]}}, {"type": "Feature", "properties": {"norad_id": 66838, "name": "STARLINK-35886", "group": "last-30-days", "lat": 64.17956635812482, "lon": -144.75617428270925, "alt_km": 404.54090746279144, "timestamp": "2025-12-24T09:46:29.716077+00:00", "meta": {"OBJECT_NAME": "STARLINK-35886", "OBJECT_ID": "2025-280T", "EPOCH": "2025-12-24T03:16:30.082656", "MEAN_MOTION": 15.52540822, "ECCENTRICITY": 0.0003469, "INCLINATION": 70.0009, "RA_OF_ASC_NODE": 167.1582, "ARG_OF_PERICENTER": 270.9342, "MEAN_ANOMALY": 89.1448, "EPHEMERIS_TYPE": 0, "CLASSIFICATION_TYPE": "U", "NORAD_CAT_ID": 66838, "ELEMENT_SET_NO": 999, "REV_AT_EPOCH": 470, "BSTAR": 0.0015693, "MEAN_MOTION_DOT": 0.00097651, "MEAN_MOTION_DDOT": 0}, "tle": {"line1": "1 66838U 25280T   25358.13645929  .00097651  00000+0  15693-2 0  9993", "line2": "2 66838  70.0009 167.1582 0003469 270.9342  89.1448 15.52540822  4707"}}, "geometry": {"type": "Point", "coordinates": [-144.75617428270925, 64.17956635812482]}}]}